[{"OBJECT_NAME":"2023-085M","OBJECT_ID":"2023-085M","EPOCH":"2023-11-16T21:57:07.885440","MEAN_MOTION":15.11291671,"ECCENTRICITY":0.0011923,"INCLINATION":97.4696,"RA_OF_ASC_NODE":63.9085,"ARG_OF_PERICENTER":104.67,"MEAN_ANOMALY":255.5853,"EPHEMERIS_TYPE":0,"CLASSIFICATION_TYPE":"U","NORAD_CAT_ID":57015,"ELEMENT_SET_NO":999,"REV_AT_EPOCH":2334,"BSTAR":0.00059005,"MEAN_MOTION_DOT":9.893e-5,"MEAN_MOTION_DDOT":0},{"OBJECT_NAME":"2023-085N","OBJECT_ID":"2023-085N","EPOCH":"2023-11-17T04:22:06.123648","MEAN_MOTION":15.1129237,"ECCENTRICITY":0.0012162,"INCLINATION":97.4688,"RA_OF_ASC_NODE":64.1481,"ARG_OF_PERICENTER":104.5464,"MEAN_ANOMALY":255.7116,"EPHEMERIS_TYPE":0,"CLASSIFICATION_TYPE":"U","NORAD_CAT_ID":57016,"ELEMENT_SET_NO":999,"REV_AT_EPOCH":2338,"BSTAR":0.00053782,"MEAN_MOTION_DOT":9.012e-5,"MEAN_MOTION_DDOT":0},{"OBJECT_NAME":"2023-085P","OBJECT_ID":"2023-085P","EPOCH":"2023-11-17T02:39:30.152160","MEAN_MOTION":15.1131379,"ECCENTRICITY":0.0011705,"INCLINATION":97.4652,"RA_OF_ASC_NODE":64.0178,"ARG_OF_PERICENTER":105.8915,"MEAN_ANOMALY":254.3606,"EPHEMERIS_TYPE":0,"CLASSIFICATION_TYPE":"U","NORAD_CAT_ID":57017,"ELEMENT_SET_NO":999,"REV_AT_EPOCH":2337,"BSTAR":0.00056481,"MEAN_MOTION_DOT":9.472e-5,"MEAN_MOTION_DDOT":0},{"OBJECT_NAME":"2023-085Q","OBJECT_ID":"2023-085Q","EPOCH":"2023-11-16T21:40:35.558976","MEAN_MOTION":15.11538962,"ECCENTRICITY":0.0012992,"INCLINATION":97.4638,"RA_OF_ASC_NODE":63.8014,"ARG_OF_PERICENTER":108.1548,"MEAN_ANOMALY":252.1098,"EPHEMERIS_TYPE":0,"CLASSIFICATION_TYPE":"U","NORAD_CAT_ID":57018,"ELEMENT_SET_NO":999,"REV_AT_EPOCH":2334,"BSTAR":0.00063639,"MEAN_MOTION_DOT":0.00010753,"MEAN_MOTION_DDOT":0},{"OBJECT_NAME":"2023-085R","OBJECT_ID":"2023-085R","EPOCH":"2023-11-16T21:50:06.117792","MEAN_MOTION":15.11310487,"ECCENTRICITY":0.001204,"INCLINATION":97.4633,"RA_OF_ASC_NODE":63.7859,"ARG_OF_PERICENTER":107.2627,"MEAN_ANOMALY":252.9922,"EPHEMERIS_TYPE":0,"CLASSIFICATION_TYPE":"U","NORAD_CAT_ID":57019,"ELEMENT_SET_NO":999,"REV_AT_EPOCH":2334,"BSTAR":0.00057955,"MEAN_MOTION_DOT":9.721e-5,"MEAN_MOTION_DDOT":0},{"OBJECT_NAME":"2023-085S","OBJECT_ID":"2023-085S","EPOCH":"2023-11-16T21:43:55.831584","MEAN_MOTION":15.11315252,"ECCENTRICITY":0.001243,"INCLINATION":97.4697,"RA_OF_ASC_NODE":63.918,"ARG_OF_PERICENTER":106.1386,"MEAN_ANOMALY":254.1213,"EPHEMERIS_TYPE":0,"CLASSIFICATION_TYPE":"U","NORAD_CAT_ID":57020,"ELEMENT_SET_NO":999,"REV_AT_EPOCH":2334,"BSTAR":0.00059747,"MEAN_MOTION_DOT":0.00010027,"MEAN_MOTION_DDOT":0},{"OBJECT_NAME":"2023-085T","OBJECT_ID":"2023-085T","EPOCH":"2023-11-17T04:03:51.630048","MEAN_MOTION":15.11296122,"ECCENTRICITY":0.0012128,"INCLINATION":97.4626,"RA_OF_ASC_NODE":64.0343,"ARG_OF_PERICENTER":108.455,"MEAN_ANOMALY":251.8,"EPHEMERIS_TYPE":0,"CLASSIFICATION_TYPE":"U","NORAD_CAT_ID":57021,"ELEMENT_SET_NO":999,"REV_AT_EPOCH":2338,"BSTAR":0.00055719,"MEAN_MOTION_DOT":9.34e-5,"MEAN_MOTION_DDOT":0},{"OBJECT_NAME":"2023-085U","OBJECT_ID":"2023-085U","EPOCH":"2023-11-16T21:32:10.074912","MEAN_MOTION":15.11442795,"ECCENTRICITY":0.0013216,"INCLINATION":97.4695,"RA_OF_ASC_NODE":63.9236,"ARG_OF_PERICENTER":111.6823,"MEAN_ANOMALY":248.5816,"EPHEMERIS_TYPE":0,"CLASSIFICATION_TYPE":"U","NORAD_CAT_ID":57022,"ELEMENT_SET_NO":999,"REV_AT_EPOCH":2334,"BSTAR":0.00061387,"MEAN_MOTION_DOT":0.00010343,"MEAN_MOTION_DDOT":0},{"OBJECT_NAME":"2023-085V","OBJECT_ID":"2023-085V","EPOCH":"2023-11-16T20:56:03.745248","MEAN_MOTION":15.10594549,"ECCENTRICITY":0.0012723,"INCLINATION":97.468,"RA_OF_ASC_NODE":63.7682,"ARG_OF_PERICENTER":123.0001,"MEAN_ANOMALY":237.2453,"EPHEMERIS_TYPE":0,"CLASSIFICATION_TYPE":"U","NORAD_CAT_ID":57023,"ELEMENT_SET_NO":999,"REV_AT_EPOCH":2333,"BSTAR":0.00041546,"MEAN_MOTION_DOT":6.813e-5,"MEAN_MOTION_DDOT":0},{"OBJECT_NAME":"2023-085W","OBJECT_ID":"2023-085W","EPOCH":"2023-11-16T21:38:24.469440","MEAN_MOTION":15.1130784,"ECCENTRICITY":0.0012876,"INCLINATION":97.4687,"RA_OF_ASC_NODE":63.899,"ARG_OF_PERICENTER":112.0073,"MEAN_ANOMALY":248.2527,"EPHEMERIS_TYPE":0,"CLASSIFICATION_TYPE":"U","NORAD_CAT_ID":57024,"ELEMENT_SET_NO":999,"REV_AT_EPOCH":2334,"BSTAR":0.0006356,"MEAN_MOTION_DOT":0.00010671,"MEAN_MOTION_DDOT":0},{"OBJECT_NAME":"2023-085X","OBJECT_ID":"2023-085X","EPOCH":"2023-11-16T21:27:41.918688","MEAN_MOTION":15.1147086,"ECCENTRICITY":0.0012451,"INCLINATION":97.4647,"RA_OF_ASC_NODE":63.8298,"ARG_OF_PERICENTER":111.2098,"MEAN_ANOMALY":249.0463,"EPHEMERIS_TYPE":0,"CLASSIFICATION_TYPE":"U","NORAD_CAT_ID":57025,"ELEMENT_SET_NO":999,"REV_AT_EPOCH":2334,"BSTAR":0.00060204,"MEAN_MOTION_DOT":0.00010148,"MEAN_MOTION_DDOT":0},{"OBJECT_NAME":"2023-085Y","OBJECT_ID":"2023-085Y","EPOCH":"2023-11-16T22:20:43.120032","MEAN_MOTION":15.10642012,"ECCENTRICITY":0.0012247,"INCLINATION":97.466,"RA_OF_ASC_NODE":63.8095,"ARG_OF_PERICENTER":124.4029,"MEAN_ANOMALY":235.836,"EPHEMERIS_TYPE":0,"CLASSIFICATION_TYPE":"U","NORAD_CAT_ID":57026,"ELEMENT_SET_NO":999,"REV_AT_EPOCH":2334,"BSTAR":0.00040475,"MEAN_MOTION_DOT":6.643e-5,"MEAN_MOTION_DDOT":0},{"OBJECT_NAME":"2023-085Z","OBJECT_ID":"2023-085Z","EPOCH":"2023-11-16T21:37:48.867456","MEAN_MOTION":15.11036255,"ECCENTRICITY":0.0012989,"INCLINATION":97.4638,"RA_OF_ASC_NODE":63.8004,"ARG_OF_PERICENTER":112.1495,"MEAN_ANOMALY":248.1114,"EPHEMERIS_TYPE":0,"CLASSIFICATION_TYPE":"U","NORAD_CAT_ID":57027,"ELEMENT_SET_NO":999,"REV_AT_EPOCH":2334,"BSTAR":0.00057661,"MEAN_MOTION_DOT":9.601e-5,"MEAN_MOTION_DDOT":0},{"OBJECT_NAME":"2023-085AA","OBJECT_ID":"2023-085AA","EPOCH":"2023-11-16T21:27:18.056736","MEAN_MOTION":15.113343,"ECCENTRICITY":0.0013517,"INCLINATION":97.4677,"RA_OF_ASC_NODE":63.8901,"ARG_OF_PERICENTER":110.2827,"MEAN_ANOMALY":249.9857,"EPHEMERIS_TYPE":0,"CLASSIFICATION_TYPE":"U","NORAD_CAT_ID":57028,"ELEMENT_SET_NO":999,"REV_AT_EPOCH":2334,"BSTAR":0.00055375,"MEAN_MOTION_DOT":9.295e-5,"MEAN_MOTION_DDOT":0},{"OBJECT_NAME":"2023-085AB","OBJECT_ID":"2023-085AB","EPOCH":"2023-11-16T21:17:02.118912","MEAN_MOTION":15.11499752,"ECCENTRICITY":0.0012743,"INCLINATION":97.4639,"RA_OF_ASC_NODE":63.8218,"ARG_OF_PERICENTER":115.3294,"MEAN_ANOMALY":244.9258,"EPHEMERIS_TYPE":0,"CLASSIFICATION_TYPE":"U","NORAD_CAT_ID":57029,"ELEMENT_SET_NO":999,"REV_AT_EPOCH":2334,"BSTAR":0.00059544,"MEAN_MOTION_DOT":0.00010045,"MEAN_MOTION_DDOT":0},{"OBJECT_NAME":"2023-085AC","OBJECT_ID":"2023-085AC","EPOCH":"2023-11-16T21:19:30.458208","MEAN_MOTION":15.11333166,"ECCENTRICITY":0.0012776,"INCLINATION":97.4618,"RA_OF_ASC_NODE":63.7761,"ARG_OF_PERICENTER":115.183,"MEAN_ANOMALY":245.0727,"EPHEMERIS_TYPE":0,"CLASSIFICATION_TYPE":"U","NORAD_CAT_ID":57030,"ELEMENT_SET_NO":999,"REV_AT_EPOCH":2334,"BSTAR":0.0005249,"MEAN_MOTION_DOT":8.805e-5,"MEAN_MOTION_DDOT":0},{"OBJECT_NAME":"2023-085AD","OBJECT_ID":"2023-085AD","EPOCH":"2023-11-17T04:28:59.999520","MEAN_MOTION":15.10594438,"ECCENTRICITY":0.0015383,"INCLINATION":97.465,"RA_OF_ASC_NODE":64.062,"ARG_OF_PERICENTER":130.2853,"MEAN_ANOMALY":229.9724,"EPHEMERIS_TYPE":0,"CLASSIFICATION_TYPE":"U","NORAD_CAT_ID":57031,"ELEMENT_SET_NO":999,"REV_AT_EPOCH":2338,"BSTAR":0.00045041,"MEAN_MOTION_DOT":7.398e-5,"MEAN_MOTION_DDOT":0}]
