2023-085M               
1 57015U 23085M   23320.91467460  .00009893  00000+0  59005-3 0  9993
2 57015  97.4696  63.9085 0011923 104.6700 255.5853 15.11291671 23345
2023-085N               
1 57016U 23085N   23321.18201532  .00009012  00000+0  53782-3 0  9999
2 57016  97.4688  64.1481 0012162 104.5464 255.7116 15.11292370 23387
2023-085P               
1 57017U 23085P   23321.11076565  .00009472  00000+0  56481-3 0  9998
2 57017  97.4652  64.0178 0011705 105.8915 254.3606 15.11313790 23376
2023-085Q               
1 57018U 23085Q   23320.90318934  .00010753  00000+0  63639-3 0  9991
2 57018  97.4638  63.8014 0012992 108.1548 252.1098 15.11538962 23342
2023-085R               
1 57019U 23085R   23320.90979303  .00009721  00000+0  57955-3 0  9992
2 57019  97.4633  63.7859 0012040 107.2627 252.9922 15.11310487 23340
2023-085S               
1 57020U 23085S   23320.90550731  .00010027  00000+0  59747-3 0  9996
2 57020  97.4697  63.9180 0012430 106.1386 254.1213 15.11315252 23346
2023-085T               
1 57021U 23085T   23321.16934757  .00009340  00000+0  55719-3 0  9991
2 57021  97.4626  64.0343 0012128 108.4550 251.8000 15.11296122 23380
2023-085U               
1 57022U 23085U   23320.89733883  .00010343  00000+0  61387-3 0  9991
2 57022  97.4695  63.9236 0013216 111.6823 248.5816 15.11442795 23347
2023-085V               
1 57023U 23085V   23320.87226557  .00006813  00000+0  41546-3 0  9997
2 57023  97.4680  63.7682 0012723 123.0001 237.2453 15.10594549 23337
2023-085W               
1 57024U 23085W   23320.90167210  .00010671  00000+0  63560-3 0  9999
2 57024  97.4687  63.8990 0012876 112.0073 248.2527 15.11307840 23346
2023-085X               
1 57025U 23085X   23320.89423517  .00010148  00000+0  60204-3 0  9994
2 57025  97.4647  63.8298 0012451 111.2098 249.0463 15.11470860 23342
2023-085Y               
1 57026U 23085Y   23320.93105463  .00006643  00000+0  40475-3 0  9990
2 57026  97.4660  63.8095 0012247 124.4029 235.8360 15.10642012 23344
2023-085Z               
1 57027U 23085Z   23320.90126004  .00009601  00000+0  57661-3 0  9994
2 57027  97.4638  63.8004 0012989 112.1495 248.1114 15.11036255 23345
2023-085AA              
1 57028U 23085AA  23320.89395899  .00009295  00000+0  55375-3 0  9992
2 57028  97.4677  63.8901 0013517 110.2827 249.9857 15.11334300 23346
2023-085AB              
1 57029U 23085AB  23320.88683008  .00010045  00000+0  59544-3 0  9991
2 57029  97.4639  63.8218 0012743 115.3294 244.9258 15.11499752 23343
2023-085AC              
1 57030U 23085AC  23320.88854697  .00008805  00000+0  52490-3 0  9991
2 57030  97.4618  63.7761 0012776 115.1830 245.0727 15.11333166 23343
2023-085AD              
1 57031U 23085AD  23321.18680555  .00007398  00000+0  45041-3 0  9996
2 57031  97.4650  64.0620 0015383 130.2853 229.9724 15.10594438 23380
